COMMENT,ORIGINATOR,NORAD_CAT_ID,OBJECT_NAME,OBJECT_TYPE,CLASSIFICATION_TYPE,INTLDES,EPOCH,EPOCH_MICROSECONDS,MEAN_MOTION,ECCENTRICITY,INCLINATION,RA_OF_ASC_NODE,ARG_OF_PERICENTER,MEAN_ANOMALY,EPHEMERIS_TYPE,ELEMENT_SET_NO,REV_AT_EPOCH,BSTAR,MEAN_MOTION_DOT,MEAN_MOTION_DDOT,FILE,TLE_LINE0,TLE_LINE1,TLE_LINE2,OBJECT_ID,OBJECT_NUMBER,SEMIMAJOR_AXIS,PERIOD,APOGEE,PERIGEE,DECAYED
"GENERATED VIA SPACETRACK.ORG API","18 SPCS","48884","SPACEBEE-101","PAYLOAD","U","21059F","2022-09-14 07:16:29","163648","15.16916517","0.0008679","97.5664","26.5239","153.4519","206.716","0","999","6739","0.00063234","0.0001242","0","3574027","0 SPACEBEE-101","1 48884U 21059F   22257.30311532  .00012420  00000-0  63234-3 0  9995","2 48884  97.5664  26.5239 0008679 153.4519 206.7160 15.16916517 67395","2021-059F","48884","6893.303","94.929","521.151","509.186","0"
"GENERATED VIA SPACETRACK.ORG API","18 SPCS","48884","SPACEBEE-101","PAYLOAD","U","21059F","2022-09-14 15:11:26","15136","15.16925463","0.0008696","97.5665","26.8531","152.3105","207.8592","0","999","6744","0.00066703","0.0001311","0","3574287","0 SPACEBEE-101","1 48884U 21059F   22257.63293999  .00013110  00000-0  66703-3 0  9998","2 48884  97.5665  26.8531 0008696 152.3105 207.8592 15.16925463 67449","2021-059F","48884","6893.276","94.929","521.136","509.147","0"
"GENERATED VIA SPACETRACK.ORG API","18 SPCS","48884","SPACEBEE-101","PAYLOAD","U","21059F","2022-09-15 08:36:18","491040","15.16948492","0.0008737","97.5666","27.5772","149.8379","210.3359","0","999","6755","0.00080206","0.00015794","0","3574601","0 SPACEBEE-101","1 48884U 21059F   22258.35854735  .00015794  00000-0  80206-3 0  9993","2 48884  97.5666  27.5772 0008737 149.8379 210.3359 15.16948492 67554","2021-059F","48884","6893.206","94.927","521.094","509.049","0"
"GENERATED VIA SPACETRACK.ORG API","18 SPCS","48884","SPACEBEE-101","PAYLOAD","U","21059F","2022-09-15 08:36:18","491040","15.16948492","0.0008737","97.5666","27.5772","149.8379","210.3359","0","999","6755","0.00080206","0.00015794","0","3574724","0 SPACEBEE-101","1 48884U 21059F   22258.35854735  .00015794  00000-0  80206-3 0  9993","2 48884  97.5666  27.5772 0008737 149.8379 210.3359 15.16948492 67554","2021-059F","48884","6893.206","94.927","521.094","509.049","0"
"GENERATED VIA SPACETRACK.ORG API","18 SPCS","48884","SPACEBEE-101","PAYLOAD","U","21059F","2022-09-15 21:16:12","576288","15.16958145","0.0008767","97.5666","28.104","148.1107","212.0659","0","999","6763","0.00064768","0.00012739","0","3575050","0 SPACEBEE-101","1 48884U 21059F   22258.88625667  .00012739  00000-0  64768-3 0  9992","2 48884  97.5666  28.1040 0008767 148.1107 212.0659 15.16958145 67630","2021-059F","48884","6893.177","94.927","521.085","508.999","0"
"GENERATED VIA SPACETRACK.ORG API","18 SPCS","48884","SPACEBEE-101","PAYLOAD","U","21059F","2022-09-16 08:21:07","56576","15.16967943","0.0008802","97.5665","28.5648","146.6287","213.5502","0","999","6770","0.00055487","0.00010904","0","3575425","0 SPACEBEE-101","1 48884U 21059F   22259.34799834  .00010904  00000-0  55487-3 0  9992","2 48884  97.5665  28.5648 0008802 146.6287 213.5502 15.16967943 67706","2021-059F","48884","6893.148","94.926","521.080","508.945","0"
"GENERATED VIA SPACETRACK.ORG API","18 SPCS","48884","SPACEBEE-101","PAYLOAD","U","21059F","2022-09-16 08:21:07","56576","15.16967943","0.0008802","97.5665","28.5648","146.6287","213.5502","0","999","6770","0.00055487","0.00010904","0","3575604","0 SPACEBEE-101","1 48884U 21059F   22259.34799834  .00010904  00000-0  55487-3 0  9992","2 48884  97.5665  28.5648 0008802 146.6287 213.5502 15.16967943 67706","2021-059F","48884","6893.148","94.926","521.080","508.945","0"
"GENERATED VIA SPACETRACK.ORG API","18 SPCS","48884","SPACEBEE-101","PAYLOAD","U","21059F","2022-09-16 14:41:03","783840","15.16974121","0.0008802","97.5664","28.8282","145.8863","214.2937","0","999","6774","0.00058415","0.00011486","0","3575787","0 SPACEBEE-101","1 48884U 21059F   22259.61184935  .00011486  00000-0  58415-3 0  9992","2 48884  97.5664  28.8282 0008802 145.8863 214.2937 15.16974121 67743","2021-059F","48884","6893.129","94.926","521.061","508.926","0"
"GENERATED VIA SPACETRACK.ORG API","18 SPCS","48884","SPACEBEE-101","PAYLOAD","U","21059F","2022-09-17 08:05:54","374496","15.16986922","0.0008811","97.5658","29.5521","143.9548","216.2281","0","999","6785","0.00044465","0.00008727","0","3576375","0 SPACEBEE-101","1 48884U 21059F   22260.33743489  .00008727  00000-0  44465-3 0  9992","2 48884  97.5658  29.5521 0008811 143.9548 216.2281 15.16986922 67857","2021-059F","48884","6893.090","94.925","521.029","508.882","0"
"GENERATED VIA SPACETRACK.ORG API","18 SPCS","48884","SPACEBEE-101","PAYLOAD","U","21059F","2022-09-17 22:20:46","274496","15.16999175","0.0008789","97.5656","30.1445","142.334","217.851","0","999","6794","0.00050779","0.00009981","0","3576692","0 SPACEBEE-101","1 48884U 21059F   22260.93109114  .00009981  00000-0  50779-3 0  9997","2 48884  97.5656  30.1445 0008789 142.3340 217.8510 15.16999175 67941","2021-059F","48884","6893.053","94.924","520.976","508.860","0"
"GENERATED VIA SPACETRACK.ORG API","18 SPCS","48884","SPACEBEE-101","PAYLOAD","U","21059F","2022-09-18 07:50:40","657344","15.17006604","0.0008761","97.5655","30.5394","141.0825","219.104","0","999","6800","0.00049456","0.00009721","0","3577171","0 SPACEBEE-101","1 48884U 21059F   22261.32685946  .00009721  00000-0  49456-3 0  9995","2 48884  97.5655  30.5394 0008761 141.0825 219.1040 15.17006604 68009","2021-059F","48884","6893.030","94.924","520.934","508.856","0"
"GENERATED VIA SPACETRACK.ORG API","18 SPCS","48884","SPACEBEE-101","PAYLOAD","U","21059F","2022-09-18 20:30:32","840064","15.1701962","0.000879","97.5655","31.0659","139.4774","220.7115","0","999","6808","0.00058057","0.0001143","0","3577422","0 SPACEBEE-101","1 48884U 21059F   22261.85454676  .00011430  00000-0  58057-3 0  9994","2 48884  97.5655  31.0659 0008790 139.4774 220.7115 15.17019620 68086","2021-059F","48884","6892.991","94.923","520.915","508.797","0"
"GENERATED VIA SPACETRACK.ORG API","18 SPCS","48884","SPACEBEE-101","PAYLOAD","U","21059F","2022-09-19 07:35:25","719360","15.17029921","0.0008848","97.5654","31.5266","138.0393","222.1519","0","999","6815","0.00057814","0.00011385","0","3577724","0 SPACEBEE-101","1 48884U 21059F   22262.31626990  .00011385  00000-0  57814-3 0  9995","2 48884  97.5654  31.5266 0008848 138.0393 222.1519 15.17029921 68157","2021-059F","48884","6892.960","94.922","520.924","508.726","0"
"GENERATED VIA SPACETRACK.ORG API","18 SPCS","48884","SPACEBEE-101","PAYLOAD","U","21059F","2022-09-19 07:35:25","719360","15.17029921","0.0008848","97.5654","31.5266","138.0393","222.1519","0","999","6815","0.00057814","0.00011385","0","3577889","0 SPACEBEE-101","1 48884U 21059F   22262.31626990  .00011385  00000-0  57814-3 0  9995","2 48884  97.5654  31.5266 0008848 138.0393 222.1519 15.17029921 68157","2021-059F","48884","6892.960","94.922","520.924","508.726","0"
"GENERATED VIA SPACETRACK.ORG API","18 SPCS","48884","SPACEBEE-101","PAYLOAD","U","21059F","2022-09-20 07:20:09","481920","15.17052957","0.0008913","97.5656","32.5141","134.7536","225.4424","0","999","6830","0.00056732","0.00011178","0","3578736","0 SPACEBEE-101","1 48884U 21059F   22263.30566530  .00011178  00000-0  56732-3 0  9996","2 48884  97.5656  32.5141 0008913 134.7536 225.4424 15.17052957 68300","2021-059F","48884","6892.890","94.921","520.899","508.611","0"
"GENERATED VIA SPACETRACK.ORG API","18 SPCS","48884","SPACEBEE-101","PAYLOAD","U","21059F","2022-09-21 08:39:50","802624","15.17075386","0.000896","97.5658","33.5673","131.3547","228.8458","0","999","6846","0.00051858","0.00010217","0","3579340","0 SPACEBEE-101","1 48884U 21059F   22264.36100466  .00010217  00000-0  51858-3 0  9992","2 48884  97.5658  33.5673 0008960 131.3547 228.8458 15.17075386 68462","2021-059F","48884","6892.822","94.919","520.863","508.511","0"
"GENERATED VIA SPACETRACK.ORG API","18 SPCS","48884","SPACEBEE-101","PAYLOAD","U","21059F","2022-09-21 08:39:50","802624","15.17075386","0.000896","97.5658","33.5673","131.3547","228.8458","0","999","6846","0.00051858","0.00010217","0","3579752","0 SPACEBEE-101","1 48884U 21059F   22264.36100466  .00010217  00000-0  51858-3 0  9992","2 48884  97.5658  33.5673 0008960 131.3547 228.8458 15.17075386 68462","2021-059F","48884","6892.822","94.919","520.863","508.511","0"
"GENERATED VIA SPACETRACK.ORG API","18 SPCS","48884","SPACEBEE-101","PAYLOAD","U","21059F","2022-09-22 03:39:35","971488","15.17088657","0.0009027","97.5663","34.3577","129.0964","231.1074","0","999","6858","0.0004309","0.0000848","0","3580347","0 SPACEBEE-101","1 48884U 21059F   22265.15249967  .00008480  00000-0  43090-3 0  9998","2 48884  97.5663  34.3577 0009027 129.0964 231.1074 15.17088657 68581","2021-059F","48884","6892.782","94.919","520.869","508.425","0"
"GENERATED VIA SPACETRACK.ORG API","18 SPCS","48884","SPACEBEE-101","PAYLOAD","U","21059F","2022-09-22 19:29:23","156448","15.17100971","0.0009016","97.5664","35.0161","126.9929","233.2131","0","999","6868","0.00046643","0.00009188","0","3580403","0 SPACEBEE-101","1 48884U 21059F   22265.81207357  .00009188  00000-0  46643-3 0  9991","2 48884  97.5664  35.0161 0009016 126.9929 233.2131 15.17100971 68686","2021-059F","48884","6892.745","94.918","520.824","508.395","0"
"GENERATED VIA SPACETRACK.ORG API","18 SPCS","48884","SPACEBEE-101","PAYLOAD","U","21059F","2022-09-22 19:29:23","156448","15.17100971","0.0009016","97.5664","35.0161","126.9929","233.2131","0","999","6868","0.00046643","0.00009188","0","3580594","0 SPACEBEE-101","1 48884U 21059F   22265.81207357  .00009188  00000-0  46643-3 0  9991","2 48884  97.5664  35.0161 0009016 126.9929 233.2131 15.17100971 68686","2021-059F","48884","6892.745","94.918","520.824","508.395","0"
